DUBAISAT-1              
1 35682U 09041B   26204.31060234  .00000735  00000+0  11632-3 0  9991
2 35682  98.0093 337.1822 0009366 320.7560  39.2969 14.75176292910426
OCEANSAT-2              
1 35931U 09051A   26204.58599377  .00000174  00000+0  14472-3 0  9995
2 35931  98.2329 187.8035 0017824 129.5857 230.6887 13.99657189884425
WORLDVIEW-2 (WV-2)      
1 35946U 09055A   26204.55718388  .00000073  00000+0  38723-4 0  9991
2 35946  98.4750 277.5114 0005552 110.0175 250.1610 14.37908658880878
SMOS                    
1 36036U 09059A   26204.11909751  .00000236  00000+0  89103-4 0  9993
2 36036  98.4431  30.9276 0001221  98.4611 261.6715 14.39739437878620
YAOGAN-7                
1 36110U 09069A   26204.23987128  .00000363  00000+0  57441-4 0  9995
2 36110  98.0022  89.8762 0023169 284.0627  75.8009 14.78040818894959
TANDEM-X                
1 36605U 10030A   26203.49713300  .00000152  00000+0  10451-4 0  9996
2 36605  97.4465 210.7021 0001822 100.4354 259.7087 15.19149439892003
CARTOSAT-2B             
1 36795U 10035A   26204.61120866  .00000362  00000+0  56534-4 0  9990
2 36795  97.9935 254.9235 0012709  76.0317 284.2307 14.78657367865231
YAOGAN-10               
1 36834U 10038A   26204.59917895  .00001510  00000+0  18144-3 0  9990
2 36834  97.8979 227.7136 0001635  83.8294  13.0239 14.85449248862612
COSMO-SKYMED 4          
1 37216U 10060A   26204.56190178  .00000352  00000+0  50740-4 0  9996
2 37216  97.8905  27.6362 0001532  87.9494 272.1894 14.82157335849954
RESOURCESAT-2           
1 37387U 11015A   26204.61772417  .00000052  00000+0  44014-4 0  9998
2 37387  98.7625 271.8040 0012011 147.9361 212.2549 14.21600985791351
HAIYANG-2A              
1 37781U 11043A   26204.60013978  .00000024  00000+0  73323-4 0  9990
2 37781  99.3413 206.4330 0001520   5.3416 354.7748 13.73033899751650
RASAT                   
1 37791U 11044D   26204.58047443  .00000694  00000+0  12868-3 0  9992
2 37791  98.0576 295.4227 0021977  77.9783  34.8168 14.68199496798520
SRMSAT                  
1 37841U 11058D   26204.33651532  .00000363  00000+0  53261-4 0  9992
2 37841  19.9701 200.6646 0011560 241.2167 146.8753 14.11582322762932
PLEIADES 1A             
1 38012U 11076F   26204.64085366  .00000546  00000+0  12730-3 0  9991
2 38012  98.1961 279.2513 0001580  78.0536  82.7739 14.58551206777309
ZIYUAN 1-02C (ZY 1-02C) 
1 38038U 11079A   26204.61901966  .00000614  00000+0  21629-3 0  9995
2 38038  98.4054 271.1633 0006183 187.0571 333.6364 14.38241616764443
ARIRANG-3 (KOMPSAT-3)   
1 38338U 12025B   26204.57425229  .00000386  00000+0  85888-4 0  9992
2 38338  98.1190 161.4113 0005669  15.6357 344.5019 14.62234581756667
EXACTVIEW-1 (ADS-1B)    
1 38709U 12039C   26204.61239239  .00000084  00000+0  55567-4 0  9994
2 38709  98.9810 322.8314 0011832  69.3159 290.9287 14.24993978727891
SPOT 6                  
1 38755U 12047A   26204.62564935  .00000441  00000+0  10477-3 0  9996
2 38755  98.2101 271.5042 0001148  93.0392 267.0939 14.58542733738367
PLEIADES 1B             
1 39019U 12068A   26204.64427248  .00000418  00000+0  99829-4 0  9993
2 39019  98.1932 279.1909 0001465  77.3658 282.7705 14.58538313726169
GOKTURK 2               
1 39030U 12073A   26204.56378544  .00000125  00000+0  25303-4 0  9998
2 39030  97.6818  40.1705 0001181 111.1577 248.9759 14.75572189729873
LANDSAT 8               
1 39084U 13008A   26204.55715684  .00000244  00000+0  64282-4 0  9996
2 39084  98.2283 274.2570 0001337  91.7035 268.4317 14.57098340703196
SARAL                   
1 39086U 13009A   26204.56176852  .00000065  00000+0  39990-4 0  9997
2 39086  98.5560  30.6695 0002178 148.0723 212.0594 14.32897287700813
GAOFEN-1                
1 39150U 13018A   26204.58985153  .00000853  00000+0  12940-3 0  9993
2 39150  97.9079 275.9145 0017781 144.8647 215.3739 14.76526973713610
VNREDSAT 1              
1 39160U 13021B   26204.63285566  .00000462  00000+0  94945-4 0  9997
2 39160  97.9061 256.6466 0001517  82.0883 278.0493 14.64889751705627
ARIRANG-5 (KOMPSAT-5)   
1 39227U 13042A   26204.61267990  .00001100  00000+0  82907-4 0  9998
2 39227  97.6202  30.8013 0004342  32.0112 328.1378 15.04505382709335
SKYSAT-A                
1 39418U 13066C   26204.56433718  .00002489  00000+0  14330-3 0  9998
2 39418  97.3797 252.8020 0021265 183.7087 176.3990 15.13149342693981
DUBAISAT-2              
1 39419U 13066D   26204.57646338  .00005257  00000+0  32334-3 0  9994
2 39419  97.4591 193.7769 0009179 268.2428  91.7751 15.10420893691888
GPM-CORE                
1 39574U 14009C   26204.52529182  .00006207  00000+0  13548-3 0  9998
2 39574  64.9698 186.3659 0010824 264.3711  95.6195 15.45119046703426
KAZEOSAT 1              
1 39731U 14024A   26204.58794027  .00000395  00000+0  13318-3 0  9995
2 39731  98.3189 276.1261 0001205  88.7769 271.3559 14.42040485643806
