OBJECT_NAME,OBJECT_ID,EPOCH,MEAN_MOTION,ECCENTRICITY,INCLINATION,RA_OF_ASC_NODE,ARG_OF_PERICENTER,MEAN_ANOMALY,EPHEMERIS_TYPE,CLASSIFICATION_TYPE,NORAD_CAT_ID,ELEMENT_SET_NO,REV_AT_EPOCH,BSTAR,MEAN_MOTION_DOT,MEAN_MOTION_DDOT
DUBAISAT-1,2009-041B,2026-07-23T07:27:16.042176,14.75176292,.00093664,98.0093,337.1822,320.7560,39.2969,0,U,35682,999,91042,.11631747E-3,.735E-5,0
OCEANSAT-2,2009-051A,2026-07-23T14:03:49.861728,13.99657189,.00178243,98.2329,187.8035,129.5857,230.6887,0,U,35931,999,88442,.14471504E-3,.174E-5,0
WORLDVIEW-2 (WV-2),2009-055A,2026-07-23T13:22:20.687232,14.37908658,.00055526,98.4750,277.5114,110.0175,250.1610,0,U,35946,999,88087,.38723434E-4,.73E-6,0
SMOS,2009-059A,2026-07-23T02:51:30.024864,14.39739437,.00012212,98.4431,30.9276,98.4611,261.6715,0,U,36036,999,87862,.89103152E-4,.236E-5,0
YAOGAN-7,2009-069A,2026-07-23T05:45:24.878592,14.78040818,.00231696,98.0022,89.8762,284.0627,75.8009,0,U,36110,999,89495,.57441183E-4,.363E-5,0
TANDEM-X,2010-030A,2026-07-22T11:55:52.291200,15.19149439,.00018225,97.4465,210.7021,100.4354,259.7087,0,U,36605,999,89200,.10450617E-4,.152E-5,0
CARTOSAT-2B,2010-035A,2026-07-23T14:40:08.428224,14.78657367,.00127099,97.9935,254.9235,76.0317,284.2307,0,U,36795,999,86523,.56534413E-4,.362E-5,0
YAOGAN-10,2010-038A,2026-07-23T14:22:49.061280,14.85449248,.00016354,97.8979,227.7136,83.8294,13.0239,0,U,36834,999,86261,.18144297E-3,.151E-4,0
COSMO-SKYMED 4,2010-060A,2026-07-23T13:29:08.313792,14.82157335,.00015325,97.8905,27.6362,87.9494,272.1894,0,U,37216,999,84995,.50740396E-4,.352E-5,0
RESOURCESAT-2,2011-015A,2026-07-23T14:49:31.368288,14.21600985,.00120115,98.7625,271.8040,147.9361,212.2549,0,U,37387,999,79135,.44013759E-4,.52E-6,0
HAIYANG-2A,2011-043A,2026-07-23T14:24:12.076992,13.73033899,.00015202,99.3413,206.4330,5.3416,354.7748,0,U,37781,999,75165,.7332258E-4,.24E-6,0
RASAT,2011-044D,2026-07-23T13:55:52.990752,14.68199496,.00219773,98.0576,295.4227,77.9783,34.8168,0,U,37791,999,79852,.12867971E-3,.694E-5,0
SRMSAT,2011-058D,2026-07-23T08:04:34.923648,14.11582322,.00115608,19.9701,200.6646,241.2167,146.8753,0,U,37841,999,76293,.53261444E-4,.363E-5,0
PLEIADES 1A,2011-076F,2026-07-23T15:22:49.756224,14.58551206,.00015807,98.1961,279.2513,78.0536,82.7739,0,U,38012,999,77730,.12729507E-3,.546E-5,0
ZIYUAN 1-02C (ZY 1-02C),2011-079A,2026-07-23T14:51:23.298624,14.38241616,.00061838,98.4054,271.1633,187.0571,333.6364,0,U,38038,999,76444,.21628623E-3,.614E-5,0
ARIRANG-3 (KOMPSAT-3),2012-025B,2026-07-23T13:46:55.397856,14.62234581,.00056697,98.1190,161.4113,15.6357,344.5019,0,U,38338,999,75666,.85888449E-4,.386E-5,0
EXACTVIEW-1 (ADS-1B),2012-039C,2026-07-23T14:41:50.702496,14.24993978,.00118328,98.9810,322.8314,69.3159,290.9287,0,U,38709,999,72789,.55566809E-4,.84E-6,0
SPOT 6,2012-047A,2026-07-23T15:00:56.103840,14.58542733,.00011489,98.2101,271.5042,93.0392,267.0939,0,U,38755,999,73836,.10476565E-3,.441E-5,0
PLEIADES 1B,2012-068A,2026-07-23T15:27:45.142272,14.58538313,.00014652,98.1932,279.1909,77.3658,282.7705,0,U,39019,999,72616,.99829299E-4,.418E-5,0
GOKTURK 2,2012-073A,2026-07-23T13:31:51.062016,14.75572189,.00011815,97.6818,40.1705,111.1577,248.9759,0,U,39030,999,72987,.253031E-4,.125E-5,0
LANDSAT 8,2013-008A,2026-07-23T13:22:18.350976,14.57098340,.00013375,98.2283,274.2570,91.7035,268.4317,0,U,39084,999,70319,.64282442E-4,.244E-5,0
SARAL,2013-009A,2026-07-23T13:28:56.800128,14.32897287,.00021789,98.5560,30.6695,148.0723,212.0594,0,U,39086,999,70081,.39990419E-4,.65E-6,0
GAOFEN-1,2013-018A,2026-07-23T14:09:23.172192,14.76526973,.00177819,97.9079,275.9145,144.8647,215.3739,0,U,39150,999,71361,.12939766E-3,.853E-5,0
VNREDSAT 1,2013-021B,2026-07-23T15:11:18.729024,14.64889751,.00015174,97.9061,256.6466,82.0883,278.0493,0,U,39160,999,70562,.94944587E-4,.462E-5,0
ARIRANG-5 (KOMPSAT-5),2013-042A,2026-07-23T14:42:15.543360,15.04505382,.00043421,97.6202,30.8013,32.0112,328.1378,0,U,39227,999,70933,.82906668E-4,.11E-4,0
SKYSAT-A,2013-066C,2026-07-23T13:32:38.732352,15.13149342,.00212655,97.3797,252.8020,183.7087,176.3990,0,U,39418,999,69398,.14330073E-3,.2489E-4,0
DUBAISAT-2,2013-066D,2026-07-23T13:50:06.436032,15.10420893,.00091793,97.4591,193.7769,268.2428,91.7751,0,U,39419,999,69188,.32333658E-3,.5257E-4,0
GPM-CORE,2014-009C,2026-07-23T12:36:25.213248,15.45119046,.00108245,64.9698,186.3659,264.3711,95.6195,0,U,39574,999,70342,.13548196E-3,.6207E-4,0
KAZEOSAT 1,2014-024A,2026-07-23T14:06:38.039328,14.42040485,.00012051,98.3189,276.1261,88.7769,271.3559,0,U,39731,999,64380,.13318183E-3,.395E-5,0
